CCSDS_OMM_VERS = 2.0
CREATION_DATE  = 
ORIGINATOR     = 

OBJECT_NAME    = KUIPER-00275
OBJECT_ID      = 2026-030AF
CENTER_NAME    = EARTH
REF_FRAME      = TEME
TIME_SYSTEM    = UTC
MEAN_ELEMENT_THEORY = SGP/SGP4

EPOCH          = 2026-03-01T01:11:58.631424
MEAN_MOTION    = 15.34317595
ECCENTRICITY   = .00088029
INCLINATION    = 51.8829
RA_OF_ASC_NODE = 260.9167
ARG_OF_PERICENTER = 29.1145
MEAN_ANOMALY   = 331.0330

EPHEMERIS_TYPE = 0
CLASSIFICATION_TYPE = U
NORAD_CAT_ID   = 67793
ELEMENT_SET_NO = 999
REV_AT_EPOCH   = 376
BSTAR          = .91026019E-3
MEAN_MOTION_DOT = .30482E-3
MEAN_MOTION_DDOT = 0

CCSDS_OMM_VERS = 2.0
CREATION_DATE  = 
ORIGINATOR     = 

OBJECT_NAME    = KUIPER-00276
OBJECT_ID      = 2026-030AG
CENTER_NAME    = EARTH
REF_FRAME      = TEME
TIME_SYSTEM    = UTC
MEAN_ELEMENT_THEORY = SGP/SGP4

EPOCH          = 2026-03-01T01:46:49.126080
MEAN_MOTION    = 15.31528956
ECCENTRICITY   = .00180596
INCLINATION    = 51.8823
RA_OF_ASC_NODE = 261.0660
ARG_OF_PERICENTER = 39.5753
MEAN_ANOMALY   = 320.6546

EPHEMERIS_TYPE = 0
CLASSIFICATION_TYPE = U
NORAD_CAT_ID   = 67794
ELEMENT_SET_NO = 999
REV_AT_EPOCH   = 376
BSTAR          = .61880992E-3
MEAN_MOTION_DOT = .18886E-3
MEAN_MOTION_DDOT = 0

CCSDS_OMM_VERS = 2.0
CREATION_DATE  = 
ORIGINATOR     = 

OBJECT_NAME    = KUIPER-00279
OBJECT_ID      = 2026-030AH
CENTER_NAME    = EARTH
REF_FRAME      = TEME
TIME_SYSTEM    = UTC
MEAN_ELEMENT_THEORY = SGP/SGP4

EPOCH          = 2026-03-01T01:04:55.460640
MEAN_MOTION    = 15.34954701
ECCENTRICITY   = .00061058
INCLINATION    = 51.8785
RA_OF_ASC_NODE = 260.8754
ARG_OF_PERICENTER = 26.0252
MEAN_ANOMALY   = 334.1040

EPHEMERIS_TYPE = 0
CLASSIFICATION_TYPE = U
NORAD_CAT_ID   = 67795
ELEMENT_SET_NO = 999
REV_AT_EPOCH   = 376
BSTAR          = .7158945E-3
MEAN_MOTION_DOT = .24352E-3
MEAN_MOTION_DDOT = 0

CCSDS_OMM_VERS = 2.0
CREATION_DATE  = 
ORIGINATOR     = 

OBJECT_NAME    = CREW DRAGON 12
OBJECT_ID      = 2026-031A
CENTER_NAME    = EARTH
REF_FRAME      = TEME
TIME_SYSTEM    = UTC
MEAN_ELEMENT_THEORY = SGP/SGP4

EPOCH          = 2026-03-01T04:30:39.493440
MEAN_MOTION    = 15.48374594
ECCENTRICITY   = .00082926
INCLINATION    = 51.6323
RA_OF_ASC_NODE = 114.3864
ARG_OF_PERICENTER = 144.7575
MEAN_ANOMALY   = 215.3963

EPHEMERIS_TYPE = 0
CLASSIFICATION_TYPE = U
NORAD_CAT_ID   = 67796
ELEMENT_SET_NO = 999
REV_AT_EPOCH   = 55475
BSTAR          = .18154647E-3
MEAN_MOTION_DOT = .9357E-4
MEAN_MOTION_DDOT = 0

CCSDS_OMM_VERS = 2.0
CREATION_DATE  = 
ORIGINATOR     = 

OBJECT_NAME    = STARLINK-36800
OBJECT_ID      = 2026-032A
CENTER_NAME    = EARTH
REF_FRAME      = TEME
TIME_SYSTEM    = UTC
MEAN_ELEMENT_THEORY = SGP/SGP4

EPOCH          = 2026-03-01T05:51:52.391232
MEAN_MOTION    = 15.75222269
ECCENTRICITY   = .00018442
INCLINATION    = 97.2849
RA_OF_ASC_NODE = 246.3093
ARG_OF_PERICENTER = 92.2243
MEAN_ANOMALY   = 267.9234

EPHEMERIS_TYPE = 0
CLASSIFICATION_TYPE = U
NORAD_CAT_ID   = 67797
ELEMENT_SET_NO = 999
REV_AT_EPOCH   = 345
BSTAR          = .10811863E-2
MEAN_MOTION_DOT = .164512E-2
MEAN_MOTION_DDOT = 0

CCSDS_OMM_VERS = 2.0
CREATION_DATE  = 
ORIGINATOR     = 

OBJECT_NAME    = STARLINK-36798
OBJECT_ID      = 2026-032B
CENTER_NAME    = EARTH
REF_FRAME      = TEME
TIME_SYSTEM    = UTC
MEAN_ELEMENT_THEORY = SGP/SGP4

EPOCH          = 2026-03-01T05:43:41.711808
MEAN_MOTION    = 15.80871612
ECCENTRICITY   = .00011593
INCLINATION    = 97.2844
RA_OF_ASC_NODE = 246.3180
ARG_OF_PERICENTER = 74.7563
MEAN_ANOMALY   = 285.3833

EPHEMERIS_TYPE = 0
CLASSIFICATION_TYPE = U
NORAD_CAT_ID   = 67798
ELEMENT_SET_NO = 999
REV_AT_EPOCH   = 345
BSTAR          = .85716008E-3
MEAN_MOTION_DOT = .167662E-2
MEAN_MOTION_DDOT = 0

CCSDS_OMM_VERS = 2.0
CREATION_DATE  = 
ORIGINATOR     = 

OBJECT_NAME    = STARLINK-36804
OBJECT_ID      = 2026-032C
CENTER_NAME    = EARTH
REF_FRAME      = TEME
TIME_SYSTEM    = UTC
MEAN_ELEMENT_THEORY = SGP/SGP4

EPOCH          = 2026-03-01T05:49:19.595424
MEAN_MOTION    = 15.75272730
ECCENTRICITY   = .00014999
INCLINATION    = 97.2849
RA_OF_ASC_NODE = 246.3121
ARG_OF_PERICENTER = 87.1895
MEAN_ANOMALY   = 272.9542

EPHEMERIS_TYPE = 0
CLASSIFICATION_TYPE = U
NORAD_CAT_ID   = 67799
ELEMENT_SET_NO = 999
REV_AT_EPOCH   = 345
BSTAR          = .15104964E-2
MEAN_MOTION_DOT = .232234E-2
MEAN_MOTION_DDOT = 0

CCSDS_OMM_VERS = 2.0
CREATION_DATE  = 
ORIGINATOR     = 

OBJECT_NAME    = STARLINK-36354
OBJECT_ID      = 2026-032D
CENTER_NAME    = EARTH
REF_FRAME      = TEME
TIME_SYSTEM    = UTC
MEAN_ELEMENT_THEORY = SGP/SGP4

EPOCH          = 2026-03-01T05:40:51.015648
MEAN_MOTION    = 15.80926587
ECCENTRICITY   = .00015656
INCLINATION    = 97.2851
RA_OF_ASC_NODE = 246.3216
ARG_OF_PERICENTER = 64.1075
MEAN_ANOMALY   = 296.0355

EPHEMERIS_TYPE = 0
CLASSIFICATION_TYPE = U
NORAD_CAT_ID   = 67800
ELEMENT_SET_NO = 999
REV_AT_EPOCH   = 345
BSTAR          = .13177181E-2
MEAN_MOTION_DOT = .261286E-2
MEAN_MOTION_DDOT = 0

CCSDS_OMM_VERS = 2.0
CREATION_DATE  = 
ORIGINATOR     = 

OBJECT_NAME    = STARLINK-36773
OBJECT_ID      = 2026-032E
CENTER_NAME    = EARTH
REF_FRAME      = TEME
TIME_SYSTEM    = UTC
MEAN_ELEMENT_THEORY = SGP/SGP4

EPOCH          = 2026-02-28T11:27:18.810720
MEAN_MOTION    = 15.77409165
ECCENTRICITY   = .00007607
INCLINATION    = 97.2844
RA_OF_ASC_NODE = 245.5163
ARG_OF_PERICENTER = 88.1892
MEAN_ANOMALY   = 271.9461

EPHEMERIS_TYPE = 0
CLASSIFICATION_TYPE = U
NORAD_CAT_ID   = 67801
ELEMENT_SET_NO = 999
REV_AT_EPOCH   = 333
BSTAR          = -.5231315E-2
MEAN_MOTION_DOT = -.785481E-2
MEAN_MOTION_DDOT = 0

CCSDS_OMM_VERS = 2.0
CREATION_DATE  = 
ORIGINATOR     = 

OBJECT_NAME    = STARLINK-36739
OBJECT_ID      = 2026-032F
CENTER_NAME    = EARTH
REF_FRAME      = TEME
TIME_SYSTEM    = UTC
MEAN_ELEMENT_THEORY = SGP/SGP4

EPOCH          = 2026-03-01T05:36:50.662944
MEAN_MOTION    = 15.80867244
ECCENTRICITY   = .00013698
INCLINATION    = 97.2842
RA_OF_ASC_NODE = 246.3239
ARG_OF_PERICENTER = 61.7470
MEAN_ANOMALY   = 298.3936

EPHEMERIS_TYPE = 0
CLASSIFICATION_TYPE = U
NORAD_CAT_ID   = 67802
ELEMENT_SET_NO = 999
REV_AT_EPOCH   = 345
BSTAR          = .68952199E-3
MEAN_MOTION_DOT = .1343E-2
MEAN_MOTION_DDOT = 0

CCSDS_OMM_VERS = 2.0
CREATION_DATE  = 
ORIGINATOR     = 

OBJECT_NAME    = STARLINK-36768
OBJECT_ID      = 2026-032G
CENTER_NAME    = EARTH
REF_FRAME      = TEME
TIME_SYSTEM    = UTC
MEAN_ELEMENT_THEORY = SGP/SGP4

EPOCH          = 2026-03-01T07:09:30.385440
MEAN_MOTION    = 15.80010115
ECCENTRICITY   = .00003291
INCLINATION    = 97.2834
RA_OF_ASC_NODE = 246.3889
ARG_OF_PERICENTER = 123.5785
MEAN_ANOMALY   = 236.5515

EPHEMERIS_TYPE = 0
CLASSIFICATION_TYPE = U
NORAD_CAT_ID   = 67803
ELEMENT_SET_NO = 999
REV_AT_EPOCH   = 346
BSTAR          = -.20780847E-2
MEAN_MOTION_DOT = -.368023E-2
MEAN_MOTION_DDOT = 0

CCSDS_OMM_VERS = 2.0
CREATION_DATE  = 
ORIGINATOR     = 

OBJECT_NAME    = STARLINK-36792
OBJECT_ID      = 2026-032H
CENTER_NAME    = EARTH
REF_FRAME      = TEME
TIME_SYSTEM    = UTC
MEAN_ELEMENT_THEORY = SGP/SGP4

EPOCH          = 2026-03-01T05:39:40.274784
MEAN_MOTION    = 15.75357267
ECCENTRICITY   = .00020327
INCLINATION    = 97.2836
RA_OF_ASC_NODE = 246.3204
ARG_OF_PERICENTER = 48.6788
MEAN_ANOMALY   = 311.4652

EPHEMERIS_TYPE = 0
CLASSIFICATION_TYPE = U
NORAD_CAT_ID   = 67804
ELEMENT_SET_NO = 999
REV_AT_EPOCH   = 345
BSTAR          = -.2914645E-2
MEAN_MOTION_DOT = -.417416E-2
MEAN_MOTION_DDOT = 0

