KUIPER-00275            
1 67793U 26030AF  26060.04998416  .00030482  00000+0  91026-3 0  9995
2 67793  51.8829 260.9167 0008802  29.1145 331.0330 15.34317595  3760
KUIPER-00276            
1 67794U 26030AG  26060.07417970  .00018886  00000+0  61881-3 0  9990
2 67794  51.8823 261.0660 0018059  39.5753 320.6546 15.31528956  3765
KUIPER-00279            
1 67795U 26030AH  26060.04508635  .00024352  00000+0  71589-3 0  9998
2 67795  51.8785 260.8754 0006105  26.0252 334.1040 15.34954701  3761
CREW DRAGON 12          
1 67796U 26031A   26060.18795710  .00009357  00000+0  18155-3 0  9995
2 67796  51.6323 114.3864 0008292 144.7575 215.3963 15.48374594554753
STARLINK-36800          
1 67797U 26032A   26060.24435638  .00164512  00000+0  10812-2 0  9990
2 67797  97.2849 246.3093 0001844  92.2243 267.9234 15.75222269  3459
STARLINK-36798          
1 67798U 26032B   26060.23867722  .00167662  00000+0  85716-3 0  9998
2 67798  97.2844 246.3180 0001159  74.7563 285.3833 15.80871612  3458
STARLINK-36804          
1 67799U 26032C   26060.24258791  .00232234  00000+0  15105-2 0  9992
2 67799  97.2849 246.3121 0001499  87.1895 272.9542 15.75272730  3451
STARLINK-36354          
1 67800U 26032D   26060.23670157  .00261286  00000+0  13177-2 0  9994
2 67800  97.2851 246.3216 0001565  64.1075 296.0355 15.80926587  3452
STARLINK-36773          
1 67801U 26032E   26059.47730105 -.00785481  00000+0 -52313-2 0  9994
2 67801  97.2844 245.5163 0000760  88.1892 271.9461 15.77409165  3337
STARLINK-36739          
1 67802U 26032F   26060.23391971  .00134300  00000+0  68952-3 0  9998
2 67802  97.2842 246.3239 0001369  61.7470 298.3936 15.80867244  3457
STARLINK-36768          
1 67803U 26032G   26060.29826835 -.00368023  00000+0 -20781-2 0  9997
2 67803  97.2834 246.3889 0000329 123.5785 236.5515 15.80010115  3466
STARLINK-36792          
1 67804U 26032H   26060.23588281 -.00417416  00000+0 -29146-2 0  9997
2 67804  97.2836 246.3204 0002032  48.6788 311.4652 15.75357267  3453
